CCSDS_OMM_VERS = 2.0
CREATION_DATE  = 
ORIGINATOR     = 

OBJECT_NAME    = TITAN 4B R/B
OBJECT_ID      = 2000-047B
CENTER_NAME    = EARTH
REF_FRAME      = TEME
TIME_SYSTEM    = UTC
MEAN_ELEMENT_THEORY = SGP/SGP4

EPOCH          = 2025-11-17T19:33:22.624416
MEAN_MOTION    = 15.08534397
ECCENTRICITY   = .0041092
INCLINATION    = 67.9910
RA_OF_ASC_NODE = 354.8445
ARG_OF_PERICENTER = 173.7556
MEAN_ANOMALY   = 186.4114

EPHEMERIS_TYPE = 0
CLASSIFICATION_TYPE = U
NORAD_CAT_ID   = 26474
ELEMENT_SET_NO = 999
REV_AT_EPOCH   = 37603
BSTAR          = .32115E-3
MEAN_MOTION_DOT = .4991E-4
MEAN_MOTION_DDOT = 0

CCSDS_OMM_VERS = 2.0
CREATION_DATE  = 
ORIGINATOR     = 

OBJECT_NAME    = ENVISAT
OBJECT_ID      = 2002-009A
CENTER_NAME    = EARTH
REF_FRAME      = TEME
TIME_SYSTEM    = UTC
MEAN_ELEMENT_THEORY = SGP/SGP4

EPOCH          = 2025-11-17T20:47:28.476384
MEAN_MOTION    = 14.38986448
ECCENTRICITY   = .0001257
INCLINATION    = 98.3558
RA_OF_ASC_NODE = 273.2425
ARG_OF_PERICENTER = 81.8636
MEAN_ANOMALY   = 302.0210

EPHEMERIS_TYPE = 0
CLASSIFICATION_TYPE = U
NORAD_CAT_ID   = 27386
ELEMENT_SET_NO = 999
REV_AT_EPOCH   = 24309
BSTAR          = .93851E-4
MEAN_MOTION_DOT = .247E-5
MEAN_MOTION_DDOT = 0

CCSDS_OMM_VERS = 2.0
CREATION_DATE  = 
ORIGINATOR     = 

OBJECT_NAME    = IDEFIX & ARIANE 42P R/B
OBJECT_ID      = 2002-021B
CENTER_NAME    = EARTH
REF_FRAME      = TEME
TIME_SYSTEM    = UTC
MEAN_ELEMENT_THEORY = SGP/SGP4

EPOCH          = 2025-11-17T19:55:15.707424
MEAN_MOTION    = 14.30924936
ECCENTRICITY   = .0012157
INCLINATION    = 98.5746
RA_OF_ASC_NODE = 256.8491
ARG_OF_PERICENTER = 151.8886
MEAN_ANOMALY   = 208.2955

EPHEMERIS_TYPE = 0
CLASSIFICATION_TYPE = U
NORAD_CAT_ID   = 27422
ELEMENT_SET_NO = 999
REV_AT_EPOCH   = 22802
BSTAR          = .21552E-3
MEAN_MOTION_DOT = .523E-5
MEAN_MOTION_DDOT = 0

CCSDS_OMM_VERS = 2.0
CREATION_DATE  = 
ORIGINATOR     = 

OBJECT_NAME    = AQUA
OBJECT_ID      = 2002-022A
CENTER_NAME    = EARTH
REF_FRAME      = TEME
TIME_SYSTEM    = UTC
MEAN_ELEMENT_THEORY = SGP/SGP4

EPOCH          = 2025-11-17T20:03:36.721152
MEAN_MOTION    = 14.61725900
ECCENTRICITY   = .0000661
INCLINATION    = 98.3999
RA_OF_ASC_NODE = 282.3167
ARG_OF_PERICENTER = 61.5288
MEAN_ANOMALY   = 328.4749

EPHEMERIS_TYPE = 0
CLASSIFICATION_TYPE = U
NORAD_CAT_ID   = 27424
ELEMENT_SET_NO = 999
REV_AT_EPOCH   = 25239
BSTAR          = .37772E-3
MEAN_MOTION_DOT = .1833E-4
MEAN_MOTION_DDOT = 0

CCSDS_OMM_VERS = 2.0
CREATION_DATE  = 
ORIGINATOR     = 

OBJECT_NAME    = CZ-4B R/B
OBJECT_ID      = 2002-024C
CENTER_NAME    = EARTH
REF_FRAME      = TEME
TIME_SYSTEM    = UTC
MEAN_ELEMENT_THEORY = SGP/SGP4

EPOCH          = 2025-11-17T14:57:38.498400
MEAN_MOTION    = 14.14520696
ECCENTRICITY   = .00497725
INCLINATION    = 98.9040
RA_OF_ASC_NODE = 10.4781
ARG_OF_PERICENTER = 342.4084
MEAN_ANOMALY   = 169.4691

EPHEMERIS_TYPE = 0
CLASSIFICATION_TYPE = U
NORAD_CAT_ID   = 27432
ELEMENT_SET_NO = 999
REV_AT_EPOCH   = 21339
BSTAR          = .83791734E-4
MEAN_MOTION_DOT = .118E-5
MEAN_MOTION_DDOT = 0

CCSDS_OMM_VERS = 2.0
CREATION_DATE  = 
ORIGINATOR     = 

OBJECT_NAME    = MIDORI II (ADEOS-II)
OBJECT_ID      = 2002-056A
CENTER_NAME    = EARTH
REF_FRAME      = TEME
TIME_SYSTEM    = UTC
MEAN_ELEMENT_THEORY = SGP/SGP4

EPOCH          = 2025-11-17T20:41:27.119616
MEAN_MOTION    = 14.29181976
ECCENTRICITY   = .0001122
INCLINATION    = 98.7595
RA_OF_ASC_NODE = 274.6931
ARG_OF_PERICENTER = 27.5286
MEAN_ANOMALY   = 332.5955

EPHEMERIS_TYPE = 0
CLASSIFICATION_TYPE = U
NORAD_CAT_ID   = 27597
ELEMENT_SET_NO = 999
REV_AT_EPOCH   = 19432
BSTAR          = .21046E-3
MEAN_MOTION_DOT = .489E-5
MEAN_MOTION_DDOT = 0

CCSDS_OMM_VERS = 2.0
CREATION_DATE  = 
ORIGINATOR     = 

OBJECT_NAME    = H-2A R/B
OBJECT_ID      = 2002-056E
CENTER_NAME    = EARTH
REF_FRAME      = TEME
TIME_SYSTEM    = UTC
MEAN_ELEMENT_THEORY = SGP/SGP4

EPOCH          = 2025-11-17T19:53:31.323264
MEAN_MOTION    = 14.33650360
ECCENTRICITY   = .0071089
INCLINATION    = 98.3026
RA_OF_ASC_NODE = 281.5829
ARG_OF_PERICENTER = 134.2398
MEAN_ANOMALY   = 256.1265

EPHEMERIS_TYPE = 0
CLASSIFICATION_TYPE = U
NORAD_CAT_ID   = 27601
ELEMENT_SET_NO = 999
REV_AT_EPOCH   = 19808
BSTAR          = .17761E-3
MEAN_MOTION_DOT = .466E-5
MEAN_MOTION_DDOT = 0

CCSDS_OMM_VERS = 2.0
CREATION_DATE  = 
ORIGINATOR     = 

OBJECT_NAME    = CZ-4B R/B
OBJECT_ID      = 2003-049C
CENTER_NAME    = EARTH
REF_FRAME      = TEME
TIME_SYSTEM    = UTC
MEAN_ELEMENT_THEORY = SGP/SGP4

EPOCH          = 2025-11-17T16:47:10.417632
MEAN_MOTION    = 14.54877179
ECCENTRICITY   = .0047574
INCLINATION    = 98.6769
RA_OF_ASC_NODE = 307.3200
ARG_OF_PERICENTER = 212.3602
MEAN_ANOMALY   = 147.4674

EPHEMERIS_TYPE = 0
CLASSIFICATION_TYPE = U
NORAD_CAT_ID   = 28059
ELEMENT_SET_NO = 999
REV_AT_EPOCH   = 17031
BSTAR          = .17029E-3
MEAN_MOTION_DOT = .691E-5
MEAN_MOTION_DDOT = 0

CCSDS_OMM_VERS = 2.0
CREATION_DATE  = 
ORIGINATOR     = 

OBJECT_NAME    = CZ-2C R/B
OBJECT_ID      = 2004-012C
CENTER_NAME    = EARTH
REF_FRAME      = TEME
TIME_SYSTEM    = UTC
MEAN_ELEMENT_THEORY = SGP/SGP4

EPOCH          = 2025-11-17T04:21:00.925344
MEAN_MOTION    = 15.53302019
ECCENTRICITY   = .0018731
INCLINATION    = 97.7470
RA_OF_ASC_NODE = 11.7338
ARG_OF_PERICENTER = 7.9128
MEAN_ANOMALY   = 352.2416

EPHEMERIS_TYPE = 0
CLASSIFICATION_TYPE = U
NORAD_CAT_ID   = 28222
ELEMENT_SET_NO = 999
REV_AT_EPOCH   = 18675
BSTAR          = .73910809E-3
MEAN_MOTION_DOT = .47037E-3
MEAN_MOTION_DDOT = 0

CCSDS_OMM_VERS = 2.0
CREATION_DATE  = 
ORIGINATOR     = 

OBJECT_NAME    = SL-16 R/B
OBJECT_ID      = 2004-021B
CENTER_NAME    = EARTH
REF_FRAME      = TEME
TIME_SYSTEM    = UTC
MEAN_ELEMENT_THEORY = SGP/SGP4

EPOCH          = 2025-11-17T19:13:36.525216
MEAN_MOTION    = 14.14576894
ECCENTRICITY   = .0006394
INCLINATION    = 70.9989
RA_OF_ASC_NODE = 107.2971
ARG_OF_PERICENTER = 225.9118
MEAN_ANOMALY   = 134.1479

EPHEMERIS_TYPE = 0
CLASSIFICATION_TYPE = U
NORAD_CAT_ID   = 28353
ELEMENT_SET_NO = 999
REV_AT_EPOCH   = 10701
BSTAR          = .21839E-3
MEAN_MOTION_DOT = .372E-5
MEAN_MOTION_DDOT = 0

CCSDS_OMM_VERS = 2.0
CREATION_DATE  = 
ORIGINATOR     = 

OBJECT_NAME    = CZ-4B R/B
OBJECT_ID      = 2004-035C
CENTER_NAME    = EARTH
REF_FRAME      = TEME
TIME_SYSTEM    = UTC
MEAN_ELEMENT_THEORY = SGP/SGP4

EPOCH          = 2025-11-17T12:43:34.229856
MEAN_MOTION    = 15.26822169
ECCENTRICITY   = .00339854
INCLINATION    = 97.3645
RA_OF_ASC_NODE = 352.2177
ARG_OF_PERICENTER = 9.3100
MEAN_ANOMALY   = 350.8761

EPHEMERIS_TYPE = 0
CLASSIFICATION_TYPE = U
NORAD_CAT_ID   = 28415
ELEMENT_SET_NO = 999
REV_AT_EPOCH   = 16278
BSTAR          = .42623916E-3
MEAN_MOTION_DOT = .11356E-3
MEAN_MOTION_DDOT = 0

CCSDS_OMM_VERS = 2.0
CREATION_DATE  = 
ORIGINATOR     = 

OBJECT_NAME    = CZ-2C R/B
OBJECT_ID      = 2004-046B
CENTER_NAME    = EARTH
REF_FRAME      = TEME
TIME_SYSTEM    = UTC
MEAN_ELEMENT_THEORY = SGP/SGP4

EPOCH          = 2025-11-17T17:10:18.808608
MEAN_MOTION    = 14.26925083
ECCENTRICITY   = .0140501
INCLINATION    = 98.1965
RA_OF_ASC_NODE = 238.6521
ARG_OF_PERICENTER = 125.7052
MEAN_ANOMALY   = 235.7298

EPHEMERIS_TYPE = 0
CLASSIFICATION_TYPE = U
NORAD_CAT_ID   = 28480
ELEMENT_SET_NO = 999
REV_AT_EPOCH   = 9253
BSTAR          = .12161E-3
MEAN_MOTION_DOT = .288E-5
MEAN_MOTION_DDOT = 0

