TITAN 4B R/B            
1 26474U 00047B   25321.81484519  .00004991  00000+0  32115-3 0  9994
2 26474  67.9910 354.8445 0041092 173.7556 186.4114 15.08534397376039
ENVISAT                 
1 27386U 02009A   25321.86630181  .00000247  00000+0  93851-4 0  9995
2 27386  98.3558 273.2425 0001257  81.8636 302.0210 14.38986448243099
IDEFIX & ARIANE 42P R/B 
1 27422U 02021B   25321.83004291  .00000523  00000+0  21552-3 0  9999
2 27422  98.5746 256.8491 0012157 151.8886 208.2955 14.30924936228022
AQUA                    
1 27424U 02022A   25321.83584168  .00001833  00000+0  37772-3 0  9994
2 27424  98.3999 282.3167 0000661  61.5288 328.4749 14.61725900252393
CZ-4B R/B               
1 27432U 02024C   25321.62336225  .00000118  00000+0  83792-4 0  9990
2 27432  98.9040  10.4781 0049772 342.4084 169.4691 14.14520696213397
MIDORI II (ADEOS-II)    
1 27597U 02056A   25321.86211944  .00000489  00000+0  21046-3 0  9997
2 27597  98.7595 274.6931 0001122  27.5286 332.5955 14.29181976194322
H-2A R/B                
1 27601U 02056E   25321.82883476  .00000466  00000+0  17761-3 0  9998
2 27601  98.3026 281.5829 0071089 134.2398 256.1265 14.33650360198080
CZ-4B R/B               
1 28059U 03049C   25321.69942613  .00000691  00000+0  17029-3 0  9990
2 28059  98.6769 307.3200 0047574 212.3602 147.4674 14.54877179170317
CZ-2C R/B               
1 28222U 04012C   25321.18126071  .00047037  00000+0  73911-3 0  9996
2 28222  97.7470  11.7338 0018731   7.9128 352.2416 15.53302019186751
SL-16 R/B               
1 28353U 04021B   25321.80111719  .00000372  00000+0  21839-3 0  9996
2 28353  70.9989 107.2971 0006394 225.9118 134.1479 14.14576894107019
CZ-4B R/B               
1 28415U 04035C   25321.53025728  .00011356  00000+0  42624-3 0  9993
2 28415  97.3645 352.2177 0033985   9.3100 350.8761 15.26822169162780
CZ-2C R/B               
1 28480U 04046B   25321.71549547  .00000288  00000+0  12161-3 0  9992
2 28480  98.1965 238.6521 0140501 125.7052 235.7298 14.26925083 92537
